OBJECT_NAME,OBJECT_ID,EPOCH,MEAN_MOTION,ECCENTRICITY,INCLINATION,RA_OF_ASC_NODE,ARG_OF_PERICENTER,MEAN_ANOMALY,EPHEMERIS_TYPE,CLASSIFICATION_TYPE,NORAD_CAT_ID,ELEMENT_SET_NO,REV_AT_EPOCH,BSTAR,MEAN_MOTION_DOT,MEAN_MOTION_DDOT
USA 167,2003-008A,2026-07-20T03:14:24.743040,1.00270864,.00034987,11.0252,43.1090,315.4784,226.1380,0,U,27691,999,710,0,-.4E-7,0
USA 169 (MILSTAR-2 4),2003-012A,2026-07-20T09:56:17.884896,1.00273111,.00994582,12.3990,29.5671,10.4851,199.3748,0,U,27711,999,3328,0,-.204E-5,0
ASIASAT 4,2003-014A,2026-07-20T13:44:16.882368,1.00271372,.00027908,4.7861,75.3225,45.1055,171.5358,0,U,27718,999,4563,0,-.226E-5,0
HELLAS-SAT 2,2003-020A,2026-07-20T09:39:33.095232,1.00272214,.00039756,7.4351,67.4831,84.2242,281.3225,0,U,27811,999,4318,0,-.9E-6,0
THURAYA-2,2003-026A,2026-07-20T04:47:00.076416,1.00273380,.00022604,8.8885,31.8183,28.3634,353.5583,0,U,27825,999,8468,0,.118E-5,0
OPTUS C1,2003-028B,2026-07-20T11:21:21.882816,1.00269931,.00053744,6.9710,69.0025,46.8244,148.4212,0,U,27831,999,5339,0,-.158E-5,0
USA 170,2003-040A,2026-07-20T04:41:30.602112,1.00276893,.0001969,10.5694,47.6293,82.9931,262.0356,0,U,27875,999,3332,0,.118E-5,0
GALAXY 13 (HORIZONS-1),2003-044A,2026-07-20T12:09:38.918016,1.00273669,.0002087,1.5022,83.4292,39.7051,207.5562,0,U,27954,999,4690,0,.13E-5,0
YAMAL 202,2003-053A,2026-07-20T11:26:07.371744,1.00271620,.00031737,6.4241,70.5315,47.1056,155.6698,0,U,28089,999,8303,0,-.86E-6,0
UFO 11 (USA 174),2003-057A,2026-07-20T01:30:45.607104,1.00270736,.00027856,8.9552,33.6429,103.2012,259.2393,0,U,28117,999,8278,0,-.111E-5,0
USA 176 (DSP 22),2004-004A,2026-07-20T09:28:19.171776,1.00264545,.00010582,12.1068,25.8211,308.5977,56.2528,0,U,28158,999,3327,0,-.304E-5,0
ABS-4 (MOBISAT-1),2004-007A,2026-07-20T04:51:52.109280,1.00274638,.00045518,6.1217,71.6001,51.6416,308.6987,0,U,28184,999,5266,0,.33E-6,0
INTELSAT 10-02,2004-022A,2026-07-20T09:42:10.343232,1.00270851,.00000956,0.0551,255.2981,322.1055,225.3114,0,U,28358,999,8088,0,-.13E-6,0
ANIK F2,2004-027A,2026-07-20T09:58:38.843904,1.00272140,.0003722,3.3715,79.0044,34.4825,223.2336,0,U,28378,999,4159,0,-.53E-6,0
AMC-15,2004-041A,2026-07-20T08:32:53.018016,1.00271817,.00023678,0.0373,291.7226,184.8473,204.7261,0,U,28446,999,7963,0,-.9E-6,0
NSS-10,2005-003A,2026-07-20T14:13:29.944416,1.00271917,.00028611,6.5315,70.0450,45.7377,358.5008,0,U,28526,999,5349,0,-.257E-5,0
INMARSAT 4-F1,2005-009A,2026-07-20T10:50:04.723584,1.00272539,.00027483,5.2137,42.7969,74.6249,161.4161,0,U,28628,999,7800,0,.28E-6,0
DIRECTV 8,2005-019A,2026-07-20T12:00:38.910240,1.00272722,.0003123,0.0183,67.6694,56.8404,234.8684,0,U,28659,999,7740,0,0,0
GALAXY 28 (G-28),2005-022A,2026-07-20T11:17:23.913024,1.00272202,.00023637,3.3811,78.5206,35.7099,326.2650,0,U,28702,999,5231,0,-.204E-5,0
THAICOM 4,2005-028A,2026-07-20T11:59:10.727808,1.00272024,.00016632,0.3293,85.5221,8.4662,143.5769,0,U,28786,999,5258,0,-.364E-5,0
ANIK F1R,2005-036A,2026-07-20T09:58:38.843904,1.00272226,.00039598,4.3957,76.1662,22.2097,242.1646,0,U,28868,999,4678,0,-.79E-6,0
SYRACUSE 3A,2005-041B,2026-07-20T06:30:24.988320,1.00270658,.00026323,4.7230,75.4287,35.9553,330.8961,0,U,28885,999,7608,0,.124E-5,0
INMARSAT 4-F2,2005-044A,2026-07-20T12:05:55.080672,1.00271126,.0002918,5.1390,43.6810,62.6721,156.8915,0,U,28899,999,7585,0,-.265E-5,0
METEOSAT-9 (MSG-2),2005-049B,2026-07-20T04:47:30.027840,1.00274969,.00024377,9.4343,53.8381,358.7484,2.9518,0,U,28912,999,733,0,.116E-5,0
EUTELSAT 174A,2005-052A,2026-07-20T12:39:38.831328,1.00273002,.00060439,4.3011,76.1146,43.0796,182.9676,0,U,28924,999,5266,0,.5E-7,0
ECHOSTAR 10,2006-003A,2026-07-20T12:08:38.594400,1.00271504,.00016286,0.0426,290.4300,149.6429,290.1781,0,U,28935,999,7479,0,-.57E-6,0
SPAINSAT,2006-007A,2026-07-20T06:08:48.781824,1.00272904,.00048862,0.6469,86.0041,28.6446,245.3863,0,U,28945,999,7454,0,-.219E-5,0
JCSAT-5A,2006-010A,2026-07-20T12:33:38.670336,1.00271891,.00018906,1.1934,83.8408,26.3726,148.5398,0,U,29045,999,7410,0,-.33E-5,0
ASTRA 1KR,2006-012A,2026-07-20T08:05:12.143040,1.00273278,.00034972,0.5575,83.1917,27.9852,327.2287,0,U,29055,999,4602,0,.117E-5,0
GALAXY 16 (G-16),2006-023A,2026-07-20T10:56:48.386976,1.00271664,.00027116,0.0251,138.4830,341.2400,243.6939,0,U,29236,999,7330,0,-.128E-5,0
EUTELSAT 33F,2006-032A,2026-07-20T11:34:29.773056,1.00275088,.00036273,1.7457,81.8735,33.1870,29.9102,0,U,29270,999,4764,0,.153E-5,0
JCSAT-3A,2006-033A,2026-07-20T12:01:33.000096,1.00271227,.00023109,0.0346,270.1591,212.8222,123.6840,0,U,29272,999,4807,0,-.346E-5,0
